KUIPER-00044            
1 64505U 25134F   25213.91668981 -.00014613  00000+0 -74650-3 0  9997
2 64505  51.8718 142.5637 0011371 260.7803  18.8468 15.15470103  6805
KUIPER-00046            
1 64506U 25134G   25213.91668981 -.00014451  00000+0 -60924-3 0  9997
2 64506  51.8719 141.6040 0008315 267.7065 128.2465 15.22074246  6838
KUIPER-00047            
1 64507U 25134H   25213.21343667  .00029039  00000+0  86508-3 0  9994
2 64507  51.8635 144.4516 0010129 266.5729  93.4098 15.34406785  7190
KUIPER-00048            
1 64508U 25134J   25213.35884019  .00033776  00000+0  94301-3 0  9994
2 64508  51.8760 143.2286 0002534 243.9009 116.1717 15.36408677  6769
KUIPER-00049            
1 64509U 25134K   25213.31692419  .00030869  00000+0  88593-3 0  9998
2 64509  51.8714 143.6796 0006477 245.9547 114.0762 15.35576646  7217
KUIPER-00050            
1 64510U 25134L   25213.19169421  .00044209  00000+0  12798-2 0  9994
2 64510  51.8723 144.3439 0007502 241.5456 118.4774 15.35127437  7190
KUIPER-00051            
1 64511U 25134M   25213.44039320  .00028794  00000+0  82419-3 0  9996
2 64511  51.8728 143.0138 0004721 238.5006 121.5519 15.35705096  7156
KUIPER-00052            
1 64512U 25134N   25213.58335648  .01453478  00000+0  26319-1 0  9991
2 64512  51.8748 141.6903 0003659 270.9087 114.0882 15.46251209  6806
