<?xml version="1.0" encoding="UTF-8"?>
<ndm xmlns:xsi="http://www.w3.org/2001/XMLSchema-instance" xsi:noNamespaceSchemaLocation="https://sanaregistry.org/r/ndmxml_unqualified/ndmxml-2.0.0-master-2.0.xsd">
<omm id="CCSDS_OMM_VERS" version="2.0">
<header><CREATION_DATE/><ORIGINATOR/></header><body><segment><metadata><OBJECT_NAME>KUIPER-00044</OBJECT_NAME><OBJECT_ID>2025-134F</OBJECT_ID><CENTER_NAME>EARTH</CENTER_NAME><REF_FRAME>TEME</REF_FRAME><TIME_SYSTEM>UTC</TIME_SYSTEM><MEAN_ELEMENT_THEORY>SGP4</MEAN_ELEMENT_THEORY></metadata><data><meanElements><EPOCH>2025-08-01T22:00:01.999584</EPOCH><MEAN_MOTION>15.15470103</MEAN_MOTION><ECCENTRICITY>.0011371</ECCENTRICITY><INCLINATION>51.8718</INCLINATION><RA_OF_ASC_NODE>142.5637</RA_OF_ASC_NODE><ARG_OF_PERICENTER>260.7803</ARG_OF_PERICENTER><MEAN_ANOMALY>18.8468</MEAN_ANOMALY></meanElements><tleParameters><EPHEMERIS_TYPE>0</EPHEMERIS_TYPE><CLASSIFICATION_TYPE>U</CLASSIFICATION_TYPE><NORAD_CAT_ID>64505</NORAD_CAT_ID><ELEMENT_SET_NO>999</ELEMENT_SET_NO><REV_AT_EPOCH>680</REV_AT_EPOCH><BSTAR>-.7465E-3</BSTAR><MEAN_MOTION_DOT>-.14613E-3</MEAN_MOTION_DOT><MEAN_MOTION_DDOT>0</MEAN_MOTION_DDOT></tleParameters></data></segment></body></omm>
<omm id="CCSDS_OMM_VERS" version="2.0">
<header><CREATION_DATE/><ORIGINATOR/></header><body><segment><metadata><OBJECT_NAME>KUIPER-00046</OBJECT_NAME><OBJECT_ID>2025-134G</OBJECT_ID><CENTER_NAME>EARTH</CENTER_NAME><REF_FRAME>TEME</REF_FRAME><TIME_SYSTEM>UTC</TIME_SYSTEM><MEAN_ELEMENT_THEORY>SGP4</MEAN_ELEMENT_THEORY></metadata><data><meanElements><EPOCH>2025-08-01T22:00:01.999584</EPOCH><MEAN_MOTION>15.22074246</MEAN_MOTION><ECCENTRICITY>.0008315</ECCENTRICITY><INCLINATION>51.8719</INCLINATION><RA_OF_ASC_NODE>141.6040</RA_OF_ASC_NODE><ARG_OF_PERICENTER>267.7065</ARG_OF_PERICENTER><MEAN_ANOMALY>128.2465</MEAN_ANOMALY></meanElements><tleParameters><EPHEMERIS_TYPE>0</EPHEMERIS_TYPE><CLASSIFICATION_TYPE>U</CLASSIFICATION_TYPE><NORAD_CAT_ID>64506</NORAD_CAT_ID><ELEMENT_SET_NO>999</ELEMENT_SET_NO><REV_AT_EPOCH>683</REV_AT_EPOCH><BSTAR>-.60924E-3</BSTAR><MEAN_MOTION_DOT>-.14451E-3</MEAN_MOTION_DOT><MEAN_MOTION_DDOT>0</MEAN_MOTION_DDOT></tleParameters></data></segment></body></omm>
<omm id="CCSDS_OMM_VERS" version="2.0">
<header><CREATION_DATE/><ORIGINATOR/></header><body><segment><metadata><OBJECT_NAME>KUIPER-00047</OBJECT_NAME><OBJECT_ID>2025-134H</OBJECT_ID><CENTER_NAME>EARTH</CENTER_NAME><REF_FRAME>TEME</REF_FRAME><TIME_SYSTEM>UTC</TIME_SYSTEM><MEAN_ELEMENT_THEORY>SGP4</MEAN_ELEMENT_THEORY></metadata><data><meanElements><EPOCH>2025-08-01T05:07:20.928288</EPOCH><MEAN_MOTION>15.34406785</MEAN_MOTION><ECCENTRICITY>.0010129</ECCENTRICITY><INCLINATION>51.8635</INCLINATION><RA_OF_ASC_NODE>144.4516</RA_OF_ASC_NODE><ARG_OF_PERICENTER>266.5729</ARG_OF_PERICENTER><MEAN_ANOMALY>93.4098</MEAN_ANOMALY></meanElements><tleParameters><EPHEMERIS_TYPE>0</EPHEMERIS_TYPE><CLASSIFICATION_TYPE>U</CLASSIFICATION_TYPE><NORAD_CAT_ID>64507</NORAD_CAT_ID><ELEMENT_SET_NO>999</ELEMENT_SET_NO><REV_AT_EPOCH>719</REV_AT_EPOCH><BSTAR>.86508E-3</BSTAR><MEAN_MOTION_DOT>.29039E-3</MEAN_MOTION_DOT><MEAN_MOTION_DDOT>0</MEAN_MOTION_DDOT></tleParameters></data></segment></body></omm>
<omm id="CCSDS_OMM_VERS" version="2.0">
<header><CREATION_DATE/><ORIGINATOR/></header><body><segment><metadata><OBJECT_NAME>KUIPER-00048</OBJECT_NAME><OBJECT_ID>2025-134J</OBJECT_ID><CENTER_NAME>EARTH</CENTER_NAME><REF_FRAME>TEME</REF_FRAME><TIME_SYSTEM>UTC</TIME_SYSTEM><MEAN_ELEMENT_THEORY>SGP4</MEAN_ELEMENT_THEORY></metadata><data><meanElements><EPOCH>2025-08-01T08:36:43.792416</EPOCH><MEAN_MOTION>15.36408677</MEAN_MOTION><ECCENTRICITY>.0002534</ECCENTRICITY><INCLINATION>51.8760</INCLINATION><RA_OF_ASC_NODE>143.2286</RA_OF_ASC_NODE><ARG_OF_PERICENTER>243.9009</ARG_OF_PERICENTER><MEAN_ANOMALY>116.1717</MEAN_ANOMALY></meanElements><tleParameters><EPHEMERIS_TYPE>0</EPHEMERIS_TYPE><CLASSIFICATION_TYPE>U</CLASSIFICATION_TYPE><NORAD_CAT_ID>64508</NORAD_CAT_ID><ELEMENT_SET_NO>999</ELEMENT_SET_NO><REV_AT_EPOCH>676</REV_AT_EPOCH><BSTAR>.94301E-3</BSTAR><MEAN_MOTION_DOT>.33776E-3</MEAN_MOTION_DOT><MEAN_MOTION_DDOT>0</MEAN_MOTION_DDOT></tleParameters></data></segment></body></omm>
<omm id="CCSDS_OMM_VERS" version="2.0">
<header><CREATION_DATE/><ORIGINATOR/></header><body><segment><metadata><OBJECT_NAME>KUIPER-00049</OBJECT_NAME><OBJECT_ID>2025-134K</OBJECT_ID><CENTER_NAME>EARTH</CENTER_NAME><REF_FRAME>TEME</REF_FRAME><TIME_SYSTEM>UTC</TIME_SYSTEM><MEAN_ELEMENT_THEORY>SGP4</MEAN_ELEMENT_THEORY></metadata><data><meanElements><EPOCH>2025-08-01T07:36:22.250016</EPOCH><MEAN_MOTION>15.35576646</MEAN_MOTION><ECCENTRICITY>.0006477</ECCENTRICITY><INCLINATION>51.8714</INCLINATION><RA_OF_ASC_NODE>143.6796</RA_OF_ASC_NODE><ARG_OF_PERICENTER>245.9547</ARG_OF_PERICENTER><MEAN_ANOMALY>114.0762</MEAN_ANOMALY></meanElements><tleParameters><EPHEMERIS_TYPE>0</EPHEMERIS_TYPE><CLASSIFICATION_TYPE>U</CLASSIFICATION_TYPE><NORAD_CAT_ID>64509</NORAD_CAT_ID><ELEMENT_SET_NO>999</ELEMENT_SET_NO><REV_AT_EPOCH>721</REV_AT_EPOCH><BSTAR>.88593E-3</BSTAR><MEAN_MOTION_DOT>.30869E-3</MEAN_MOTION_DOT><MEAN_MOTION_DDOT>0</MEAN_MOTION_DDOT></tleParameters></data></segment></body></omm>
<omm id="CCSDS_OMM_VERS" version="2.0">
<header><CREATION_DATE/><ORIGINATOR/></header><body><segment><metadata><OBJECT_NAME>KUIPER-00050</OBJECT_NAME><OBJECT_ID>2025-134L</OBJECT_ID><CENTER_NAME>EARTH</CENTER_NAME><REF_FRAME>TEME</REF_FRAME><TIME_SYSTEM>UTC</TIME_SYSTEM><MEAN_ELEMENT_THEORY>SGP4</MEAN_ELEMENT_THEORY></metadata><data><meanElements><EPOCH>2025-08-01T04:36:02.379744</EPOCH><MEAN_MOTION>15.35127437</MEAN_MOTION><ECCENTRICITY>.0007502</ECCENTRICITY><INCLINATION>51.8723</INCLINATION><RA_OF_ASC_NODE>144.3439</RA_OF_ASC_NODE><ARG_OF_PERICENTER>241.5456</ARG_OF_PERICENTER><MEAN_ANOMALY>118.4774</MEAN_ANOMALY></meanElements><tleParameters><EPHEMERIS_TYPE>0</EPHEMERIS_TYPE><CLASSIFICATION_TYPE>U</CLASSIFICATION_TYPE><NORAD_CAT_ID>64510</NORAD_CAT_ID><ELEMENT_SET_NO>999</ELEMENT_SET_NO><REV_AT_EPOCH>719</REV_AT_EPOCH><BSTAR>.12798E-2</BSTAR><MEAN_MOTION_DOT>.44209E-3</MEAN_MOTION_DOT><MEAN_MOTION_DDOT>0</MEAN_MOTION_DDOT></tleParameters></data></segment></body></omm>
<omm id="CCSDS_OMM_VERS" version="2.0">
<header><CREATION_DATE/><ORIGINATOR/></header><body><segment><metadata><OBJECT_NAME>KUIPER-00051</OBJECT_NAME><OBJECT_ID>2025-134M</OBJECT_ID><CENTER_NAME>EARTH</CENTER_NAME><REF_FRAME>TEME</REF_FRAME><TIME_SYSTEM>UTC</TIME_SYSTEM><MEAN_ELEMENT_THEORY>SGP4</MEAN_ELEMENT_THEORY></metadata><data><meanElements><EPOCH>2025-08-01T10:34:09.972480</EPOCH><MEAN_MOTION>15.35705096</MEAN_MOTION><ECCENTRICITY>.0004721</ECCENTRICITY><INCLINATION>51.8728</INCLINATION><RA_OF_ASC_NODE>143.0138</RA_OF_ASC_NODE><ARG_OF_PERICENTER>238.5006</ARG_OF_PERICENTER><MEAN_ANOMALY>121.5519</MEAN_ANOMALY></meanElements><tleParameters><EPHEMERIS_TYPE>0</EPHEMERIS_TYPE><CLASSIFICATION_TYPE>U</CLASSIFICATION_TYPE><NORAD_CAT_ID>64511</NORAD_CAT_ID><ELEMENT_SET_NO>999</ELEMENT_SET_NO><REV_AT_EPOCH>715</REV_AT_EPOCH><BSTAR>.82419E-3</BSTAR><MEAN_MOTION_DOT>.28794E-3</MEAN_MOTION_DOT><MEAN_MOTION_DDOT>0</MEAN_MOTION_DDOT></tleParameters></data></segment></body></omm>
<omm id="CCSDS_OMM_VERS" version="2.0">
<header><CREATION_DATE/><ORIGINATOR/></header><body><segment><metadata><OBJECT_NAME>KUIPER-00052</OBJECT_NAME><OBJECT_ID>2025-134N</OBJECT_ID><CENTER_NAME>EARTH</CENTER_NAME><REF_FRAME>TEME</REF_FRAME><TIME_SYSTEM>UTC</TIME_SYSTEM><MEAN_ELEMENT_THEORY>SGP4</MEAN_ELEMENT_THEORY></metadata><data><meanElements><EPOCH>2025-08-01T14:00:01.999872</EPOCH><MEAN_MOTION>15.46251209</MEAN_MOTION><ECCENTRICITY>.0003659</ECCENTRICITY><INCLINATION>51.8748</INCLINATION><RA_OF_ASC_NODE>141.6903</RA_OF_ASC_NODE><ARG_OF_PERICENTER>270.9087</ARG_OF_PERICENTER><MEAN_ANOMALY>114.0882</MEAN_ANOMALY></meanElements><tleParameters><EPHEMERIS_TYPE>0</EPHEMERIS_TYPE><CLASSIFICATION_TYPE>U</CLASSIFICATION_TYPE><NORAD_CAT_ID>64512</NORAD_CAT_ID><ELEMENT_SET_NO>999</ELEMENT_SET_NO><REV_AT_EPOCH>680</REV_AT_EPOCH><BSTAR>.26319E-1</BSTAR><MEAN_MOTION_DOT>.1453478E-1</MEAN_MOTION_DOT><MEAN_MOTION_DDOT>0</MEAN_MOTION_DDOT></tleParameters></data></segment></body></omm>

</ndm>
